INMARSAT 4-F2 (SOUTHPA*)
1 28899U 05044A   26111.74516807 -.00000267  00000+0  00000+0 0  9992
2 28899   5.0231  43.7499 0002483 339.1651 238.6427  1.00269161 74953
GSAT-8 (GAGAN/PRN 127)  
1 37605U 11022A   26111.79898830  .00000078  00000+0  00000+0 0  9993
2 37605   1.9863  82.4703 0005380 223.3691 246.7359  1.00272892 52651
LUCH 5A (SDCM/PRN 140)  
1 37951U 11074B   26111.73546666 -.00000054  00000+0  00000+0 0  9990
2 37951   8.6126  74.6204 0002662 294.9946 271.8722  1.00272003 52485
SES-5 (EGNOS/PRN 136)   
1 38652U 12036A   26111.84072669  .00000027  00000+0  00000+0 0  9996
2 38652   0.0586 301.3696 0001796  76.5958 139.5888  1.00271517 43896
GSAT-10 (GAGAN/PRN 128) 
1 38779U 12051B   26111.77899579 -.00000171  00000+0  00000+0 0  9993
2 38779   0.0372 265.0793 0006602 176.0921 132.1093  1.00270474 49535
LUCH 5B (SDCM/PRN 125)  
1 38977U 12061A   26111.30829505 -.00000141  00000+0  00000+0 0  9992
2 38977  10.3631  50.4315 0002023 212.1621  41.5113  1.00271800 49030
ASTRA 5B (EGNOS/PRN 123)
1 39617U 14011B   26111.65013375  .00000131  00000+0  00000+0 0  9997
2 39617   0.0596 316.9498 0002832  47.7284 102.5999  1.00273511 44109
LUCH 5V (SDCM/PRN 141)  
1 39727U 14023A   26111.87820197 -.00000275  00000+0  00000+0 0  9994
2 39727   4.9951  70.2897 0002047 332.0327 218.5253  1.00273432 43795
GSAT-15 (GAGAN/PRN 139) 
1 41028U 15065A   26111.34350479 -.00000263  00000+0  00000+0 0  9998
2 41028   0.0494  73.4034 0003010 340.3136  12.8710  1.00270459 38221
EUTELSAT 117 WEST B (W*)
1 41589U 16038B   26111.34990243 -.00000017  00000+0  00000+0 0  9997
2 41589   0.0098 100.3524 0000084 250.7030 227.3541  1.00271672 36098
SES-15 (WAAS/PRN 133)   
1 42709U 17026A   26111.77033844  .00000053  00000+0  00000+0 0  9991
2 42709   0.0256 329.1078 0000850  33.2920 355.6078  1.00274316  6867
QZS-2 (QZSS/PRN 194)    
1 42738U 17028A   26111.67485056 -.00000212  00000+0  00000+0 0  9998
2 42738  39.5163 243.9780 0740752 270.7664  76.4717  1.00248831  7054
QZS-3 (QZSS/PRN 199)    
1 42917U 17048A   26111.81328837 -.00000355  00000+0  00000+0 0  9996
2 42917   0.0524 196.7160 0001302 171.7024 261.2765  1.00273034 31692
QZS-4 (QZSS/PRN 195)    
1 42965U 17062A   26111.48323980 -.00000318  00000+0  00000+0 0  9991
2 42965  40.1429 344.2070 0747332 270.7889 268.7500  1.00266675 31235
BEIDOU-3 G1 (PRN 130)   
1 43683U 18085A   26111.81978840 -.00000115  00000+0  00000+0 0  9998
2 43683   2.9313  98.8847 0007176 332.0683 234.1001  1.00265410 27496
EUTELSAT 5 WEST B (EGN*)
1 44624U 19067A   26111.84628160 -.00000049  00000+0  00000+0 0  9991
2 44624   0.0685 357.8885 0003108  34.3408 117.3481  1.00273808 23873
BEIDOU-3 G2 (PRN 144)   
1 45344U 20017A   26111.91156689 -.00000147  00000+0  00000+0 0  9997
2 45344   2.7518  46.4260 0002429 343.9901 227.7704  1.00271673 22698
BEIDOU-3 G3 (PRN 143)   
1 45807U 20040A   26111.88132200 -.00000360  00000+0  00000+0 0  9993
2 45807   2.3092  67.2627 0003638 326.6563 243.8487  1.00272797 21502
GALAXY 30 (WAAS/PRN 135)
1 46114U 20056C   26111.69201064  .00000030  00000+0  00000+0 0  9999
2 46114   0.0068 215.4305 0002134 178.0900 300.3548  1.00271963 20720
QZS-1R (QZSS/PRN 196)   
1 49336U 21096A   26111.24617456 -.00000224  00000+0  00000+0 0  9996
2 49336  37.3474  80.4214 0750812 270.7260  82.4972  1.00274340 16449
QZS-6 (QZSS/PRN 200)    
1 62876U 25023A   26111.77683910 -.00000239  00000+0  00000+0 0  9996
2 62876   0.0253  24.3488 0001894   8.6118 187.0233  1.00267906  4397
